{
 "cells": [
  {
   "cell_type": "code",
   "execution_count": 17,
   "metadata": {},
   "outputs": [],
   "source": [
    "import pandas as pd\n",
    "df = pd.read_pickle(\"./output/00337.pkl.gz\",\"gzip\")"
   ]
  },
  {
   "cell_type": "code",
   "execution_count": 18,
   "metadata": {},
   "outputs": [
    {
     "data": {
      "text/html": [
       "<div>\n",
       "<style scoped>\n",
       "    .dataframe tbody tr th:only-of-type {\n",
       "        vertical-align: middle;\n",
       "    }\n",
       "\n",
       "    .dataframe tbody tr th {\n",
       "        vertical-align: top;\n",
       "    }\n",
       "\n",
       "    .dataframe thead th {\n",
       "        text-align: right;\n",
       "    }\n",
       "</style>\n",
       "<table border=\"1\" class=\"dataframe\">\n",
       "  <thead>\n",
       "    <tr style=\"text-align: right;\">\n",
       "      <th></th>\n",
       "      <th>EPOCH</th>\n",
       "      <th>NORAD_CAT_ID</th>\n",
       "      <th>MEAN_MOTION</th>\n",
       "      <th>ECCENTRICITY</th>\n",
       "      <th>INCLINATION</th>\n",
       "      <th>RA_OF_ASC_NODE</th>\n",
       "      <th>ARG_OF_PERICENTER</th>\n",
       "      <th>MEAN_ANOMALY</th>\n",
       "      <th>REV_AT_EPOCH</th>\n",
       "      <th>BSTAR</th>\n",
       "      <th>MEAN_MOTION_DOT</th>\n",
       "      <th>MEAN_MOTION_DDOT</th>\n",
       "      <th>SEMIMAJOR_AXIS</th>\n",
       "      <th>PERIOD</th>\n",
       "      <th>APOAPSIS</th>\n",
       "      <th>PERIAPSIS</th>\n",
       "    </tr>\n",
       "  </thead>\n",
       "  <tbody>\n",
       "    <tr>\n",
       "      <th>0</th>\n",
       "      <td>2021-01-18T00:00:00.999648</td>\n",
       "      <td>47280</td>\n",
       "      <td>15.161319</td>\n",
       "      <td>0.001241</td>\n",
       "      <td>87.4473</td>\n",
       "      <td>28.8968</td>\n",
       "      <td>157.4971</td>\n",
       "      <td>30.6900</td>\n",
       "      <td>467</td>\n",
       "      <td>-0.079282</td>\n",
       "      <td>-1.405685e-02</td>\n",
       "      <td>0.0</td>\n",
       "      <td>6895.681</td>\n",
       "      <td>94.978</td>\n",
       "      <td>526.103</td>\n",
       "      <td>508.989</td>\n",
       "    </tr>\n",
       "    <tr>\n",
       "      <th>1</th>\n",
       "      <td>2021-01-18T00:00:00.999648</td>\n",
       "      <td>46782</td>\n",
       "      <td>15.627504</td>\n",
       "      <td>0.000261</td>\n",
       "      <td>53.0540</td>\n",
       "      <td>102.3966</td>\n",
       "      <td>11.2655</td>\n",
       "      <td>242.0020</td>\n",
       "      <td>1359</td>\n",
       "      <td>0.000363</td>\n",
       "      <td>3.280300e-04</td>\n",
       "      <td>0.0</td>\n",
       "      <td>6757.853</td>\n",
       "      <td>92.145</td>\n",
       "      <td>381.479</td>\n",
       "      <td>377.957</td>\n",
       "    </tr>\n",
       "    <tr>\n",
       "      <th>2</th>\n",
       "      <td>2021-01-18T00:00:00.999648</td>\n",
       "      <td>47135</td>\n",
       "      <td>15.627016</td>\n",
       "      <td>0.000125</td>\n",
       "      <td>53.0544</td>\n",
       "      <td>88.3881</td>\n",
       "      <td>13.9797</td>\n",
       "      <td>226.5839</td>\n",
       "      <td>925</td>\n",
       "      <td>0.000437</td>\n",
       "      <td>3.956400e-04</td>\n",
       "      <td>0.0</td>\n",
       "      <td>6757.993</td>\n",
       "      <td>92.148</td>\n",
       "      <td>380.701</td>\n",
       "      <td>379.016</td>\n",
       "    </tr>\n",
       "    <tr>\n",
       "      <th>3</th>\n",
       "      <td>2021-01-18T00:00:00.999648</td>\n",
       "      <td>46783</td>\n",
       "      <td>15.627893</td>\n",
       "      <td>0.000243</td>\n",
       "      <td>53.0540</td>\n",
       "      <td>102.4120</td>\n",
       "      <td>352.0254</td>\n",
       "      <td>258.6920</td>\n",
       "      <td>1360</td>\n",
       "      <td>-0.000754</td>\n",
       "      <td>-6.910000e-04</td>\n",
       "      <td>0.0</td>\n",
       "      <td>6757.741</td>\n",
       "      <td>92.142</td>\n",
       "      <td>381.248</td>\n",
       "      <td>377.964</td>\n",
       "    </tr>\n",
       "    <tr>\n",
       "      <th>4</th>\n",
       "      <td>2021-01-18T00:00:00.999648</td>\n",
       "      <td>46784</td>\n",
       "      <td>15.627509</td>\n",
       "      <td>0.000261</td>\n",
       "      <td>53.0541</td>\n",
       "      <td>102.4126</td>\n",
       "      <td>22.1243</td>\n",
       "      <td>227.9394</td>\n",
       "      <td>1354</td>\n",
       "      <td>0.000370</td>\n",
       "      <td>3.347200e-04</td>\n",
       "      <td>0.0</td>\n",
       "      <td>6757.851</td>\n",
       "      <td>92.145</td>\n",
       "      <td>381.480</td>\n",
       "      <td>377.953</td>\n",
       "    </tr>\n",
       "    <tr>\n",
       "      <th>...</th>\n",
       "      <td>...</td>\n",
       "      <td>...</td>\n",
       "      <td>...</td>\n",
       "      <td>...</td>\n",
       "      <td>...</td>\n",
       "      <td>...</td>\n",
       "      <td>...</td>\n",
       "      <td>...</td>\n",
       "      <td>...</td>\n",
       "      <td>...</td>\n",
       "      <td>...</td>\n",
       "      <td>...</td>\n",
       "      <td>...</td>\n",
       "      <td>...</td>\n",
       "      <td>...</td>\n",
       "      <td>...</td>\n",
       "    </tr>\n",
       "    <tr>\n",
       "      <th>1154</th>\n",
       "      <td>2021-01-18T16:27:49.301856</td>\n",
       "      <td>41240</td>\n",
       "      <td>12.809310</td>\n",
       "      <td>0.000736</td>\n",
       "      <td>66.0410</td>\n",
       "      <td>278.0950</td>\n",
       "      <td>272.0952</td>\n",
       "      <td>87.9220</td>\n",
       "      <td>23412</td>\n",
       "      <td>0.000091</td>\n",
       "      <td>-4.000000e-07</td>\n",
       "      <td>0.0</td>\n",
       "      <td>7715.865</td>\n",
       "      <td>112.418</td>\n",
       "      <td>1343.412</td>\n",
       "      <td>1332.049</td>\n",
       "    </tr>\n",
       "    <tr>\n",
       "      <th>1155</th>\n",
       "      <td>2021-01-18T16:35:15.137952</td>\n",
       "      <td>43689</td>\n",
       "      <td>14.214886</td>\n",
       "      <td>0.000352</td>\n",
       "      <td>98.7089</td>\n",
       "      <td>81.2816</td>\n",
       "      <td>92.7554</td>\n",
       "      <td>267.4027</td>\n",
       "      <td>11417</td>\n",
       "      <td>0.000017</td>\n",
       "      <td>-6.000000e-08</td>\n",
       "      <td>0.0</td>\n",
       "      <td>7198.459</td>\n",
       "      <td>101.302</td>\n",
       "      <td>822.858</td>\n",
       "      <td>817.791</td>\n",
       "    </tr>\n",
       "    <tr>\n",
       "      <th>1156</th>\n",
       "      <td>2021-01-18T16:38:13.870176</td>\n",
       "      <td>29499</td>\n",
       "      <td>14.214958</td>\n",
       "      <td>0.000127</td>\n",
       "      <td>98.4945</td>\n",
       "      <td>63.7771</td>\n",
       "      <td>70.4324</td>\n",
       "      <td>37.9642</td>\n",
       "      <td>73946</td>\n",
       "      <td>0.000015</td>\n",
       "      <td>-9.000000e-08</td>\n",
       "      <td>0.0</td>\n",
       "      <td>7198.435</td>\n",
       "      <td>101.301</td>\n",
       "      <td>821.212</td>\n",
       "      <td>819.388</td>\n",
       "    </tr>\n",
       "    <tr>\n",
       "      <th>1157</th>\n",
       "      <td>2021-01-18T16:41:17.716416</td>\n",
       "      <td>25991</td>\n",
       "      <td>14.164646</td>\n",
       "      <td>0.000944</td>\n",
       "      <td>98.9983</td>\n",
       "      <td>358.0061</td>\n",
       "      <td>204.6916</td>\n",
       "      <td>328.2536</td>\n",
       "      <td>9091</td>\n",
       "      <td>-0.000031</td>\n",
       "      <td>-1.070000e-06</td>\n",
       "      <td>0.0</td>\n",
       "      <td>7215.470</td>\n",
       "      <td>101.661</td>\n",
       "      <td>844.147</td>\n",
       "      <td>830.524</td>\n",
       "    </tr>\n",
       "    <tr>\n",
       "      <th>1158</th>\n",
       "      <td>2021-01-18T16:56:00.468672</td>\n",
       "      <td>28054</td>\n",
       "      <td>14.136479</td>\n",
       "      <td>0.000712</td>\n",
       "      <td>98.9376</td>\n",
       "      <td>3.2917</td>\n",
       "      <td>340.8731</td>\n",
       "      <td>192.0716</td>\n",
       "      <td>89030</td>\n",
       "      <td>-0.000016</td>\n",
       "      <td>-7.600000e-07</td>\n",
       "      <td>0.0</td>\n",
       "      <td>7225.052</td>\n",
       "      <td>101.864</td>\n",
       "      <td>852.059</td>\n",
       "      <td>841.775</td>\n",
       "    </tr>\n",
       "  </tbody>\n",
       "</table>\n",
       "<p>1159 rows × 16 columns</p>\n",
       "</div>"
      ],
      "text/plain": [
       "                           EPOCH  NORAD_CAT_ID  MEAN_MOTION  ECCENTRICITY  \\\n",
       "0     2021-01-18T00:00:00.999648         47280    15.161319      0.001241   \n",
       "1     2021-01-18T00:00:00.999648         46782    15.627504      0.000261   \n",
       "2     2021-01-18T00:00:00.999648         47135    15.627016      0.000125   \n",
       "3     2021-01-18T00:00:00.999648         46783    15.627893      0.000243   \n",
       "4     2021-01-18T00:00:00.999648         46784    15.627509      0.000261   \n",
       "...                          ...           ...          ...           ...   \n",
       "1154  2021-01-18T16:27:49.301856         41240    12.809310      0.000736   \n",
       "1155  2021-01-18T16:35:15.137952         43689    14.214886      0.000352   \n",
       "1156  2021-01-18T16:38:13.870176         29499    14.214958      0.000127   \n",
       "1157  2021-01-18T16:41:17.716416         25991    14.164646      0.000944   \n",
       "1158  2021-01-18T16:56:00.468672         28054    14.136479      0.000712   \n",
       "\n",
       "      INCLINATION  RA_OF_ASC_NODE  ARG_OF_PERICENTER  MEAN_ANOMALY  \\\n",
       "0         87.4473         28.8968           157.4971       30.6900   \n",
       "1         53.0540        102.3966            11.2655      242.0020   \n",
       "2         53.0544         88.3881            13.9797      226.5839   \n",
       "3         53.0540        102.4120           352.0254      258.6920   \n",
       "4         53.0541        102.4126            22.1243      227.9394   \n",
       "...           ...             ...                ...           ...   \n",
       "1154      66.0410        278.0950           272.0952       87.9220   \n",
       "1155      98.7089         81.2816            92.7554      267.4027   \n",
       "1156      98.4945         63.7771            70.4324       37.9642   \n",
       "1157      98.9983        358.0061           204.6916      328.2536   \n",
       "1158      98.9376          3.2917           340.8731      192.0716   \n",
       "\n",
       "      REV_AT_EPOCH     BSTAR  MEAN_MOTION_DOT  MEAN_MOTION_DDOT  \\\n",
       "0              467 -0.079282    -1.405685e-02               0.0   \n",
       "1             1359  0.000363     3.280300e-04               0.0   \n",
       "2              925  0.000437     3.956400e-04               0.0   \n",
       "3             1360 -0.000754    -6.910000e-04               0.0   \n",
       "4             1354  0.000370     3.347200e-04               0.0   \n",
       "...            ...       ...              ...               ...   \n",
       "1154         23412  0.000091    -4.000000e-07               0.0   \n",
       "1155         11417  0.000017    -6.000000e-08               0.0   \n",
       "1156         73946  0.000015    -9.000000e-08               0.0   \n",
       "1157          9091 -0.000031    -1.070000e-06               0.0   \n",
       "1158         89030 -0.000016    -7.600000e-07               0.0   \n",
       "\n",
       "      SEMIMAJOR_AXIS   PERIOD  APOAPSIS  PERIAPSIS  \n",
       "0           6895.681   94.978   526.103    508.989  \n",
       "1           6757.853   92.145   381.479    377.957  \n",
       "2           6757.993   92.148   380.701    379.016  \n",
       "3           6757.741   92.142   381.248    377.964  \n",
       "4           6757.851   92.145   381.480    377.953  \n",
       "...              ...      ...       ...        ...  \n",
       "1154        7715.865  112.418  1343.412   1332.049  \n",
       "1155        7198.459  101.302   822.858    817.791  \n",
       "1156        7198.435  101.301   821.212    819.388  \n",
       "1157        7215.470  101.661   844.147    830.524  \n",
       "1158        7225.052  101.864   852.059    841.775  \n",
       "\n",
       "[1159 rows x 16 columns]"
      ]
     },
     "execution_count": 18,
     "metadata": {},
     "output_type": "execute_result"
    }
   ],
   "source": [
    "df"
   ]
  },
  {
   "cell_type": "code",
   "execution_count": 14,
   "metadata": {},
   "outputs": [
    {
     "data": {
      "text/plain": [
       "Index(['EPOCH', 'NORAD_CAT_ID', 'MEAN_MOTION', 'ECCENTRICITY', 'INCLINATION',\n",
       "       'RA_OF_ASC_NODE', 'ARG_OF_PERICENTER', 'MEAN_ANOMALY', 'REV_AT_EPOCH',\n",
       "       'BSTAR', 'MEAN_MOTION_DOT', 'MEAN_MOTION_DDOT', 'SEMIMAJOR_AXIS',\n",
       "       'PERIOD', 'APOAPSIS', 'PERIAPSIS'],\n",
       "      dtype='object')"
      ]
     },
     "execution_count": 14,
     "metadata": {},
     "output_type": "execute_result"
    }
   ],
   "source": [
    "df.columns"
   ]
  },
  {
   "cell_type": "code",
   "execution_count": 5,
   "metadata": {},
   "outputs": [
    {
     "data": {
      "text/plain": [
       "EPOCH                 object\n",
       "NORAD_CAT_ID           int64\n",
       "MEAN_MOTION          float64\n",
       "ECCENTRICITY         float64\n",
       "INCLINATION          float64\n",
       "RA_OF_ASC_NODE       float64\n",
       "ARG_OF_PERICENTER    float64\n",
       "MEAN_ANOMALY         float64\n",
       "REV_AT_EPOCH           int64\n",
       "BSTAR                float64\n",
       "MEAN_MOTION_DOT      float64\n",
       "MEAN_MOTION_DDOT     float64\n",
       "SEMIMAJOR_AXIS       float64\n",
       "PERIOD               float64\n",
       "APOAPSIS             float64\n",
       "PERIAPSIS            float64\n",
       "dtype: object"
      ]
     },
     "execution_count": 5,
     "metadata": {},
     "output_type": "execute_result"
    }
   ],
   "source": [
    "df.dtypes"
   ]
  },
  {
   "cell_type": "raw",
   "metadata": {},
   "source": [
    "EPOCH                 object -> datetime62[ns]\n",
    "NORAD_CAT_ID           int64 -> uint32\n",
    "MEAN_MOTION          float64 -> float64 (8 decimals)\n",
    "ECCENTRICITY         float64 -> float64\n",
    "INCLINATION          float64 -> float32 (4 decimals)\n",
    "RA_OF_ASC_NODE       float64 -> float32 (4 decimals)\n",
    "ARG_OF_PERICENTER    float64 -> float32 (4 decimals)\n",
    "MEAN_ANOMALY         float64 -> float32 (4 decimals)\n",
    "REV_AT_EPOCH           int64 -> uint32\n",
    "BSTAR                float64 -> float64\n",
    "MEAN_MOTION_DOT      float64 -> float64\n",
    "MEAN_MOTION_DDOT     float64 -> float64\n",
    "SEMIMAJOR_AXIS       float64 -> float32 (4 decimals)\n",
    "PERIOD               float64 -> float32 (4 decimals)\n",
    "APOAPSIS             float64 -> float32 (4 decimals)\n",
    "PERIAPSIS            float64 -> float32 (4 decimals)\n",
    "\n",
    "Drop these?\n",
    "MEAN_ANOMALY         float64 -> float32 (4 decimals)\n",
    "REV_AT_EPOCH           int64 -> uint32\n",
    "BSTAR                float64 -> float64\n",
    "MEAN_MOTION_DOT      float64 -> float64\n",
    "MEAN_MOTION_DDOT     float64 -> float64\n",
    "PERIOD               float64 -> float32 (4 decimals)"
   ]
  },
  {
   "cell_type": "code",
   "execution_count": 10,
   "metadata": {},
   "outputs": [
    {
     "data": {
      "text/plain": [
       "int"
      ]
     },
     "execution_count": 10,
     "metadata": {},
     "output_type": "execute_result"
    }
   ],
   "source": [
    "import numpy as np\n",
    "np.datetime64('now').astype(object).year"
   ]
  }
 ],
 "metadata": {
  "kernelspec": {
   "display_name": "Python 3",
   "language": "python",
   "name": "python3"
  },
  "language_info": {
   "codemirror_mode": {
    "name": "ipython",
    "version": 3
   },
   "file_extension": ".py",
   "mimetype": "text/x-python",
   "name": "python",
   "nbconvert_exporter": "python",
   "pygments_lexer": "ipython3",
   "version": "3.8.5"
  }
 },
 "nbformat": 4,
 "nbformat_minor": 4
}
